{
  "type": "Feature",
  "id": "AX",
  "properties": {
    "buildingCode": "AX",
    "name": "Academic Annex",
    "category": "academic",
    "source": "OpenStreetMap",
    "sourceIds": ["way/160794442"],
    "matchMethods": ["exact-label"],
    "lastVerified": "2026-08-14",
    "verificationStatus": "verified"
  },
  "geometry": {
    "type": "Polygon",
    "coordinates": [
      [
        [-79.6643023, 43.5483705],
        [-79.664207, 43.5482976],
        [-79.6643163, 43.5482226],
        [-79.6643646, 43.5481895],
        [-79.6644011, 43.5481645],
        [-79.6644267, 43.5481469],
        [-79.6645261, 43.5480786],
        [-79.6646223, 43.5481522],
        [-79.6644829, 43.5482479],
        [-79.6645094, 43.5482681],
        [-79.6645293, 43.5482833],
        [-79.6644683, 43.5483252],
        [-79.664421, 43.548289],
        [-79.6643023, 43.5483705]
      ]
    ]
  }
}
