{
  "type": "Feature",
  "id": "CCT",
  "properties": {
    "buildingCode": "CCT",
    "name": "Communication, Culture and Technology Building",
    "category": "academic",
    "source": "OpenStreetMap",
    "sourceIds": ["way/116411676"],
    "matchMethods": ["exact-label"],
    "lastVerified": "2026-08-14",
    "verificationStatus": "verified"
  },
  "geometry": {
    "type": "Polygon",
    "coordinates": [
      [
        [-79.6633528, 43.5497948],
        [-79.6633714, 43.5497187],
        [-79.6634337, 43.5494644],
        [-79.6634859, 43.5492512],
        [-79.6634951, 43.5492136],
        [-79.6634393, 43.5492064],
        [-79.6633734, 43.5491979],
        [-79.6633642, 43.5492356],
        [-79.6633614, 43.5492472],
        [-79.663359, 43.5492568],
        [-79.6633569, 43.5492655],
        [-79.6632828, 43.5495684],
        [-79.6632701, 43.5496201],
        [-79.6630761, 43.5495952],
        [-79.6627259, 43.5495496],
        [-79.6627047, 43.5495474],
        [-79.6626873, 43.5495452],
        [-79.6626687, 43.5495428],
        [-79.662626, 43.5495373],
        [-79.6626042, 43.5496261],
        [-79.6625635, 43.5497925],
        [-79.6628972, 43.5498354],
        [-79.6629513, 43.5498423],
        [-79.6629722, 43.549845],
        [-79.6629924, 43.5498476],
        [-79.6629855, 43.5498755],
        [-79.6629804, 43.5498966],
        [-79.6629532, 43.5500075],
        [-79.66295, 43.5500207],
        [-79.6629289, 43.5501068],
        [-79.6629181, 43.5501509],
        [-79.6631586, 43.5501819],
        [-79.6631493, 43.55022],
        [-79.6631869, 43.5502248],
        [-79.6632114, 43.5502279],
        [-79.6632383, 43.5502314],
        [-79.663246, 43.5502324],
        [-79.6632553, 43.5501943],
        [-79.6632711, 43.5501963],
        [-79.6633012, 43.5500732],
        [-79.6632854, 43.5500712],
        [-79.6632904, 43.550051],
        [-79.6633061, 43.550053],
        [-79.6633332, 43.5499423],
        [-79.6633174, 43.5499403],
        [-79.6633223, 43.5499202],
        [-79.663338, 43.5499223],
        [-79.6633687, 43.5497968],
        [-79.6633528, 43.5497948]
      ]
    ]
  }
}
