{
  "type": "Feature",
  "id": "CUP",
  "properties": {
    "buildingCode": "CUP",
    "name": "Central Utilities Plant",
    "category": "facility",
    "source": "OpenStreetMap",
    "sourceIds": ["way/32874934"],
    "matchMethods": ["exact-label"],
    "lastVerified": "2026-08-14",
    "verificationStatus": "verified"
  },
  "geometry": {
    "type": "Polygon",
    "coordinates": [
      [
        [-79.6617241, 43.5516947],
        [-79.6619614, 43.5518499],
        [-79.6621226, 43.5519553],
        [-79.662204, 43.5518912],
        [-79.66228, 43.5519433],
        [-79.6622767, 43.5519492],
        [-79.6622762, 43.5519552],
        [-79.662277, 43.5519645],
        [-79.6622871, 43.5519727],
        [-79.6623018, 43.5519763],
        [-79.662316, 43.5519733],
        [-79.6623259, 43.551965],
        [-79.6623291, 43.5519563],
        [-79.6623258, 43.5519483],
        [-79.6623492, 43.5519507],
        [-79.6624223, 43.551892],
        [-79.6625592, 43.5517819],
        [-79.662555, 43.5517792],
        [-79.6624744, 43.5517265],
        [-79.6625044, 43.5517024],
        [-79.6623987, 43.5516333],
        [-79.6623074, 43.5517067],
        [-79.6622202, 43.5516498],
        [-79.6622091, 43.5516425],
        [-79.6622226, 43.5516316],
        [-79.6621213, 43.5515654],
        [-79.6621102, 43.5515581],
        [-79.6621012, 43.5515522],
        [-79.6620453, 43.5515157],
        [-79.6619733, 43.5515736],
        [-79.661919, 43.5515381],
        [-79.6618414, 43.5516005],
        [-79.6617241, 43.5516947]
      ]
    ]
  }
}
