{
  "type": "Feature",
  "id": "DH",
  "properties": {
    "buildingCode": "DH",
    "name": "Deerfield Hall",
    "category": "academic",
    "source": "OpenStreetMap",
    "sourceIds": ["relation/20449623"],
    "matchMethods": ["reviewed-relation"],
    "lastVerified": "2026-08-14",
    "verificationStatus": "verified"
  },
  "geometry": {
    "type": "Polygon",
    "coordinates": [
      [
        [-79.6659921, 43.5501307],
        [-79.6659426, 43.5502739],
        [-79.6659838, 43.5502885],
        [-79.6659651, 43.5503162],
        [-79.6659485, 43.5503409],
        [-79.6659164, 43.5503295],
        [-79.6659039, 43.5503517],
        [-79.665856, 43.5504371],
        [-79.665843, 43.5504603],
        [-79.6660092, 43.5505199],
        [-79.6660506, 43.5505348],
        [-79.6660599, 43.5505381],
        [-79.6660741, 43.5505432],
        [-79.6661188, 43.5505592],
        [-79.6661379, 43.550566],
        [-79.6661435, 43.550568],
        [-79.6661665, 43.5505763],
        [-79.6661766, 43.5505799],
        [-79.6662456, 43.5506046],
        [-79.6662598, 43.5506097],
        [-79.6662732, 43.5506145],
        [-79.6663144, 43.5506293],
        [-79.6663279, 43.5506341],
        [-79.6663342, 43.5506364],
        [-79.666341, 43.5506388],
        [-79.6663774, 43.5506519],
        [-79.666463, 43.5506826],
        [-79.6664714, 43.5506856],
        [-79.6665082, 43.5506988],
        [-79.6665929, 43.5507292],
        [-79.6666389, 43.5506581],
        [-79.666661, 43.5506656],
        [-79.6666767, 43.5506709],
        [-79.6667169, 43.5506088],
        [-79.6667009, 43.5506033],
        [-79.6666798, 43.5505962],
        [-79.6666995, 43.5505658],
        [-79.6667101, 43.5505494],
        [-79.6667551, 43.5504799],
        [-79.6667565, 43.5504777],
        [-79.666746, 43.5504744],
        [-79.6667193, 43.5504659],
        [-79.6666881, 43.5504559],
        [-79.6667061, 43.5504285],
        [-79.666714, 43.5504165],
        [-79.6667257, 43.5503986],
        [-79.6667325, 43.5503882],
        [-79.6667249, 43.5503849],
        [-79.6667094, 43.5503781],
        [-79.666463, 43.55027],
        [-79.6664543, 43.5502661],
        [-79.6664848, 43.5502177],
        [-79.6663414, 43.5501684],
        [-79.6663147, 43.5502102],
        [-79.6662474, 43.5501936],
        [-79.6662186, 43.5501865],
        [-79.6661414, 43.5501674],
        [-79.6661232, 43.5501629],
        [-79.6659921, 43.5501307]
      ]
    ]
  }
}
