{
  "type": "Feature",
  "id": "EH",
  "properties": {
    "buildingCode": "EH",
    "name": "Erindale Hall",
    "category": "residence",
    "source": "OpenStreetMap",
    "sourceIds": ["way/161302375"],
    "matchMethods": ["override"],
    "lastVerified": "2026-08-14",
    "verificationStatus": "verified"
  },
  "geometry": {
    "type": "Polygon",
    "coordinates": [
      [
        [-79.6649922, 43.5492678],
        [-79.6650511, 43.5492117],
        [-79.6650708, 43.5492225],
        [-79.6650905, 43.5492038],
        [-79.6651151, 43.5492174],
        [-79.6651917, 43.5491445],
        [-79.6652585, 43.5491814],
        [-79.6652217, 43.5492165],
        [-79.6652428, 43.5492281],
        [-79.6651942, 43.5492743],
        [-79.6652082, 43.549282],
        [-79.6652164, 43.5492865],
        [-79.6652427, 43.5493011],
        [-79.665258, 43.5492865],
        [-79.6652693, 43.5492757],
        [-79.6653053, 43.5492956],
        [-79.6653339, 43.5492684],
        [-79.6653417, 43.5492727],
        [-79.6653732, 43.5492428],
        [-79.6654412, 43.5492804],
        [-79.6654139, 43.5493063],
        [-79.6654493, 43.5493258],
        [-79.6654776, 43.5492989],
        [-79.6655432, 43.5493351],
        [-79.6655098, 43.5493669],
        [-79.6655199, 43.5493725],
        [-79.6654942, 43.549397],
        [-79.6655231, 43.5494129],
        [-79.6655085, 43.5494268],
        [-79.6654953, 43.5494393],
        [-79.665556, 43.5494728],
        [-79.6655755, 43.5494836],
        [-79.6655906, 43.5494749],
        [-79.6655945, 43.5494784],
        [-79.6656059, 43.5494719],
        [-79.6656295, 43.5494934],
        [-79.665666, 43.5494723],
        [-79.6656733, 43.5494789],
        [-79.665715, 43.5494548],
        [-79.6657668, 43.549502],
        [-79.6657273, 43.5495249],
        [-79.6657554, 43.5495505],
        [-79.6657934, 43.5495286],
        [-79.6658456, 43.5495761],
        [-79.6657861, 43.5496105],
        [-79.6657926, 43.5496164],
        [-79.6657699, 43.5496295],
        [-79.6657962, 43.5496535],
        [-79.6657831, 43.5496611],
        [-79.6657623, 43.5496731],
        [-79.6657815, 43.5496903],
        [-79.6658052, 43.5496815],
        [-79.6658164, 43.5496976],
        [-79.6658343, 43.5497235],
        [-79.6658528, 43.5497167],
        [-79.6658685, 43.5497394],
        [-79.6658888, 43.549732],
        [-79.6658937, 43.5497392],
        [-79.6659622, 43.5497143],
        [-79.6659991, 43.5497675],
        [-79.6659541, 43.5497839],
        [-79.6659751, 43.5498142],
        [-79.6660204, 43.5497977],
        [-79.6660577, 43.5498516],
        [-79.6659896, 43.5498764],
        [-79.6659947, 43.5498837],
        [-79.6659737, 43.5498913],
        [-79.6659894, 43.5499141],
        [-79.6659697, 43.5499213],
        [-79.6659878, 43.5499474],
        [-79.6659547, 43.5499594],
        [-79.6659669, 43.549977],
        [-79.6658811, 43.5500082],
        [-79.6658393, 43.5499479],
        [-79.6657029, 43.549751],
        [-79.6656572, 43.5497091],
        [-79.6656271, 43.5496815],
        [-79.6654535, 43.5495224],
        [-79.665356, 43.5494686],
        [-79.6653351, 43.549457],
        [-79.6652271, 43.5493974],
        [-79.6649922, 43.5492678]
      ]
    ]
  }
}
