{
  "type": "Feature",
  "id": "HB",
  "properties": {
    "buildingCode": "HB",
    "name": "Terrence Donnelly Health Sciences Complex",
    "category": "academic",
    "source": "OpenStreetMap",
    "sourceIds": ["way/1127621281", "way/1127621282", "way/160805804"],
    "matchMethods": ["entrance-membership"],
    "lastVerified": "2026-08-14",
    "verificationStatus": "verified"
  },
  "geometry": {
    "type": "MultiPolygon",
    "coordinates": [
      [
        [
          [-79.6623277, 43.5495156],
          [-79.6623245, 43.5495291],
          [-79.6623353, 43.5495305],
          [-79.6623493, 43.5495322],
          [-79.662342, 43.5495627],
          [-79.6623857, 43.5495682],
          [-79.6623384, 43.5497654],
          [-79.6622947, 43.5497599],
          [-79.6622641, 43.5497561],
          [-79.6622362, 43.5497526],
          [-79.6619687, 43.5497189],
          [-79.66164, 43.5496775],
          [-79.6615665, 43.5496683],
          [-79.6615722, 43.5496444],
          [-79.6616231, 43.5494322],
          [-79.6616274, 43.5494142],
          [-79.6622841, 43.5494968],
          [-79.6623068, 43.5494997],
          [-79.6623308, 43.5495027],
          [-79.6623277, 43.5495156]
        ]
      ],
      [
        [
          [-79.6623245, 43.5495291],
          [-79.661762, 43.5494583],
          [-79.6617549, 43.5494878],
          [-79.6616874, 43.5494793],
          [-79.66164, 43.5496775],
          [-79.6615665, 43.5496683],
          [-79.6615722, 43.5496444],
          [-79.6616231, 43.5494322],
          [-79.6616274, 43.5494142],
          [-79.6622841, 43.5494968],
          [-79.6623068, 43.5494997],
          [-79.6623308, 43.5495027],
          [-79.6623277, 43.5495156],
          [-79.6623245, 43.5495291]
        ]
      ],
      [
        [
          [-79.6622641, 43.5497561],
          [-79.6623131, 43.5495515],
          [-79.6620177, 43.5495143],
          [-79.6619718, 43.5497059],
          [-79.6619687, 43.5497189],
          [-79.6622362, 43.5497526],
          [-79.6622641, 43.5497561]
        ]
      ]
    ]
  }
}
