{
  "type": "Feature",
  "id": "HM",
  "properties": {
    "buildingCode": "HM",
    "name": "Hazel McCallion Academic Learning Centre",
    "category": "academic",
    "source": "OpenStreetMap",
    "sourceIds": ["way/116411586"],
    "matchMethods": ["exact-label"],
    "lastVerified": "2026-08-14",
    "verificationStatus": "verified"
  },
  "geometry": {
    "type": "Polygon",
    "coordinates": [
      [
        [-79.6631439, 43.5506205],
        [-79.6631171, 43.5506172],
        [-79.6630925, 43.550614],
        [-79.6630639, 43.5506103],
        [-79.6630492, 43.5506084],
        [-79.6630351, 43.5506066],
        [-79.6630384, 43.5505928],
        [-79.6630237, 43.5505909],
        [-79.663004, 43.5505884],
        [-79.6629247, 43.5505783],
        [-79.6629073, 43.5505761],
        [-79.6628299, 43.5505662],
        [-79.6628115, 43.5505639],
        [-79.662786, 43.5505606],
        [-79.6627827, 43.5505744],
        [-79.6626096, 43.5505523],
        [-79.6625703, 43.5507149],
        [-79.662529, 43.5507098],
        [-79.6625196, 43.5507492],
        [-79.6625606, 43.5507542],
        [-79.6624993, 43.5510065],
        [-79.6626313, 43.5510233],
        [-79.6626457, 43.5510252],
        [-79.6626643, 43.5510276],
        [-79.6626604, 43.5510424],
        [-79.6628884, 43.5510711],
        [-79.6629276, 43.551076],
        [-79.662931, 43.5510617],
        [-79.6629788, 43.5510677],
        [-79.662988, 43.5510297],
        [-79.6630169, 43.5510334],
        [-79.6630462, 43.5510372],
        [-79.6630417, 43.5510558],
        [-79.663037, 43.5510751],
        [-79.6631211, 43.5510859],
        [-79.6631228, 43.551079],
        [-79.663139, 43.5510124],
        [-79.6632156, 43.5506967],
        [-79.6632191, 43.5506825],
        [-79.6632223, 43.5506694],
        [-79.6632314, 43.5506317],
        [-79.6631439, 43.5506205]
      ]
    ]
  }
}
