{
  "type": "Feature",
  "id": "IB",
  "properties": {
    "buildingCode": "IB",
    "name": "Instructional Centre",
    "category": "academic",
    "source": "OpenStreetMap",
    "sourceIds": ["way/160783790"],
    "matchMethods": ["exact-label"],
    "lastVerified": "2026-08-14",
    "verificationStatus": "verified"
  },
  "geometry": {
    "type": "Polygon",
    "coordinates": [
      [
        [-79.6634259, 43.5513073],
        [-79.6634409, 43.5512869],
        [-79.6634468, 43.5512892],
        [-79.6634632, 43.5512669],
        [-79.6634738, 43.5512525],
        [-79.6634865, 43.5512351],
        [-79.6633946, 43.5511997],
        [-79.6634272, 43.5511546],
        [-79.6634302, 43.5511505],
        [-79.6634841, 43.5510779],
        [-79.6635054, 43.5510861],
        [-79.663659, 43.5511453],
        [-79.6636703, 43.5511299],
        [-79.6639256, 43.5512283],
        [-79.6639142, 43.5512438],
        [-79.664119, 43.5513228],
        [-79.6640722, 43.5513865],
        [-79.6640755, 43.5513878],
        [-79.664064, 43.5514034],
        [-79.6642082, 43.551459],
        [-79.6642634, 43.5514803],
        [-79.664419, 43.5515404],
        [-79.6644144, 43.5515466],
        [-79.6646025, 43.5516192],
        [-79.6645619, 43.5516744],
        [-79.6645541, 43.5516851],
        [-79.6644944, 43.5517663],
        [-79.6644887, 43.5517641],
        [-79.6644185, 43.551737],
        [-79.6643158, 43.5518768],
        [-79.6642989, 43.5518998],
        [-79.66429, 43.5518964],
        [-79.6640916, 43.5518199],
        [-79.664056, 43.5518062],
        [-79.6640405, 43.5518002],
        [-79.6639152, 43.5517519],
        [-79.6637511, 43.5516885],
        [-79.6636318, 43.5516425],
        [-79.6635255, 43.5516015],
        [-79.6634802, 43.551584],
        [-79.6632796, 43.5515067],
        [-79.6633261, 43.5514433],
        [-79.6634259, 43.5513073]
      ]
    ]
  }
}
