{
  "type": "Feature",
  "id": "IC",
  "properties": {
    "buildingCode": "IC",
    "name": "Innovation Complex",
    "category": "academic",
    "source": "OpenStreetMap",
    "sourceIds": ["way/1127939664"],
    "matchMethods": ["override"],
    "lastVerified": "2026-08-14",
    "verificationStatus": "verified"
  },
  "geometry": {
    "type": "Polygon",
    "coordinates": [
      [
        [-79.6630545, 43.5486487],
        [-79.6630582, 43.5486631],
        [-79.6626621, 43.5486122],
        [-79.6627408, 43.5482908],
        [-79.6627448, 43.5482744],
        [-79.6627619, 43.5482045],
        [-79.6628176, 43.5482117],
        [-79.6629797, 43.5482325],
        [-79.6629753, 43.5482521],
        [-79.6630058, 43.5482558],
        [-79.6630069, 43.5482659],
        [-79.6630089, 43.5482759],
        [-79.6630121, 43.5482877],
        [-79.6630165, 43.5482995],
        [-79.6630212, 43.5483096],
        [-79.6630279, 43.5483191],
        [-79.6630355, 43.5483295],
        [-79.6630454, 43.5483393],
        [-79.6630593, 43.5483501],
        [-79.6630749, 43.5483599],
        [-79.6630933, 43.5483686],
        [-79.6631122, 43.5483765],
        [-79.663128, 43.5483822],
        [-79.6631445, 43.548386],
        [-79.6631633, 43.5483881],
        [-79.663182, 43.5483887],
        [-79.6631818, 43.5483982],
        [-79.6630494, 43.5485347],
        [-79.6631765, 43.548594],
        [-79.663211, 43.5485984],
        [-79.6631943, 43.5486667],
        [-79.6630545, 43.5486487]
      ]
    ]
  }
}
