{
  "type": "Feature",
  "id": "KN",
  "properties": {
    "buildingCode": "KN",
    "name": "Kaneff Centre",
    "category": "academic",
    "source": "OpenStreetMap",
    "sourceIds": ["relation/20462171"],
    "matchMethods": ["reviewed-relation"],
    "lastVerified": "2026-08-14",
    "verificationStatus": "verified"
  },
  "geometry": {
    "type": "Polygon",
    "coordinates": [
      [
        [-79.6628284, 43.5481674],
        [-79.6628, 43.5481637],
        [-79.6628252, 43.5480611],
        [-79.6628347, 43.5480221],
        [-79.6628553, 43.5480248],
        [-79.6628592, 43.5480087],
        [-79.6628687, 43.5479701],
        [-79.6629223, 43.5479771],
        [-79.662941, 43.5479795],
        [-79.662944, 43.5479674],
        [-79.6631888, 43.5479989],
        [-79.6631909, 43.5479903],
        [-79.6632634, 43.5479997],
        [-79.6632614, 43.548008],
        [-79.663445, 43.5480316],
        [-79.66347, 43.5480348],
        [-79.663509, 43.5480398],
        [-79.6635012, 43.5480715],
        [-79.6634981, 43.5480842],
        [-79.6635084, 43.5480958],
        [-79.663518, 43.5481067],
        [-79.6635398, 43.5481095],
        [-79.6635805, 43.5481147],
        [-79.663513, 43.5483904],
        [-79.6634959, 43.5483882],
        [-79.6634871, 43.5484244],
        [-79.6634832, 43.5484405],
        [-79.6635944, 43.5484548],
        [-79.6635738, 43.5485156],
        [-79.6635659, 43.5485282],
        [-79.663552, 43.5485504],
        [-79.6635152, 43.5485809],
        [-79.6635253, 43.5485874],
        [-79.6635066, 43.5486015],
        [-79.6634734, 43.5486196],
        [-79.6634438, 43.5486305],
        [-79.6634376, 43.54862],
        [-79.6633931, 43.5486317],
        [-79.6633428, 43.5486368],
        [-79.6632972, 43.5486361],
        [-79.6632722, 43.5486335],
        [-79.6632467, 43.5486309],
        [-79.6632607, 43.5485739],
        [-79.6632372, 43.5485709],
        [-79.6632011, 43.5485663],
        [-79.6631765, 43.548594],
        [-79.663211, 43.5485984],
        [-79.6631943, 43.5486667],
        [-79.6630545, 43.5486487],
        [-79.6630582, 43.5486631],
        [-79.6626621, 43.5486122],
        [-79.6627408, 43.5482908],
        [-79.6627448, 43.5482744],
        [-79.6627619, 43.5482045],
        [-79.6628176, 43.5482117],
        [-79.6628284, 43.5481674]
      ]
    ]
  }
}
