{
  "type": "Feature",
  "id": "LH",
  "properties": {
    "buildingCode": "LH",
    "name": "The Principal's Residence: Lislehurst",
    "category": "facility",
    "source": "OpenStreetMap",
    "sourceIds": ["way/141606653"],
    "matchMethods": ["override"],
    "lastVerified": "2026-08-14",
    "verificationStatus": "verified"
  },
  "geometry": {
    "type": "Polygon",
    "coordinates": [
      [
        [-79.6688649, 43.5545466],
        [-79.6687096, 43.5546247],
        [-79.6686993, 43.5546139],
        [-79.6686663, 43.5546305],
        [-79.6686156, 43.5546559],
        [-79.6686289, 43.5546698],
        [-79.6685823, 43.5546933],
        [-79.6686062, 43.5547183],
        [-79.6687021, 43.5548185],
        [-79.668766, 43.5547864],
        [-79.668753, 43.5547729],
        [-79.6688377, 43.5547303],
        [-79.668814, 43.5547056],
        [-79.6688587, 43.5546831],
        [-79.6688297, 43.5546529],
        [-79.6689221, 43.5546065],
        [-79.6689138, 43.5545978],
        [-79.6688649, 43.5545466]
      ]
    ]
  }
}
