{
  "type": "Feature",
  "id": "LL",
  "properties": {
    "buildingCode": "LL",
    "name": "Leacock Lane",
    "category": "residence",
    "source": "OpenStreetMap",
    "sourceIds": ["way/1546181186", "way/1546181187", "way/1546181188", "way/1546181189"],
    "matchMethods": ["override"],
    "lastVerified": "2026-08-14",
    "verificationStatus": "verified"
  },
  "geometry": {
    "type": "MultiPolygon",
    "coordinates": [
      [
        [
          [-79.6641168, 43.5460222],
          [-79.6639459, 43.5459546],
          [-79.6638876, 43.5459316],
          [-79.6638894, 43.5459293],
          [-79.6637662, 43.5458809],
          [-79.6637757, 43.5458678],
          [-79.6636571, 43.5458204],
          [-79.6636656, 43.5458086],
          [-79.6635464, 43.5457608],
          [-79.6635371, 43.5457734],
          [-79.6634163, 43.5457269],
          [-79.6634082, 43.5457382],
          [-79.6632886, 43.5456925],
          [-79.6632971, 43.5456802],
          [-79.6631744, 43.5456329],
          [-79.6631097, 43.5457225],
          [-79.663155, 43.5457397],
          [-79.663233, 43.5457695],
          [-79.6632239, 43.5457821],
          [-79.6632803, 43.5458035],
          [-79.6633438, 43.5458276],
          [-79.6633512, 43.5458172],
          [-79.6634705, 43.5458641],
          [-79.66348, 43.5458519],
          [-79.6635996, 43.5458989],
          [-79.6635907, 43.545911],
          [-79.6637095, 43.5459569],
          [-79.6636992, 43.5459708],
          [-79.663822, 43.5460188],
          [-79.6638258, 43.5460135],
          [-79.6638851, 43.5460367],
          [-79.6640547, 43.5461033],
          [-79.6641168, 43.5460222]
        ]
      ],
      [
        [
          [-79.6630756, 43.5458234],
          [-79.6630536, 43.5458527],
          [-79.663078, 43.5458624],
          [-79.6630664, 43.5458782],
          [-79.6630591, 43.5458881],
          [-79.6630327, 43.545878],
          [-79.6630077, 43.5459137],
          [-79.6629659, 43.5458966],
          [-79.6629439, 43.5459254],
          [-79.6629678, 43.5459348],
          [-79.6629456, 43.545964],
          [-79.6629222, 43.545955],
          [-79.6629008, 43.5459833],
          [-79.662856, 43.5459654],
          [-79.6628342, 43.5459947],
          [-79.6628592, 43.5460047],
          [-79.662839, 43.5460331],
          [-79.662814, 43.5460234],
          [-79.662791, 43.5460535],
          [-79.6626687, 43.5460059],
          [-79.6627333, 43.5459161],
          [-79.6627777, 43.5459339],
          [-79.6628439, 43.5458476],
          [-79.6628876, 43.5458646],
          [-79.6629544, 43.5457753],
          [-79.6630756, 43.5458234]
        ]
      ],
      [
        [
          [-79.6633928, 43.5460527],
          [-79.6633267, 43.5461419],
          [-79.6632518, 43.5461127],
          [-79.6631879, 43.5461992],
          [-79.6631423, 43.546181],
          [-79.6630786, 43.5462693],
          [-79.663049, 43.546257],
          [-79.662982, 43.5463452],
          [-79.6628607, 43.5462969],
          [-79.6628971, 43.5462489],
          [-79.6629277, 43.5462086],
          [-79.6629557, 43.5462198],
          [-79.6629906, 43.5461725],
          [-79.6630207, 43.5461317],
          [-79.6630658, 43.5461501],
          [-79.663099, 43.5461054],
          [-79.6631295, 43.5460645],
          [-79.6632032, 43.5460938],
          [-79.6632428, 43.5460403],
          [-79.6632692, 43.5460046],
          [-79.6632863, 43.5460113],
          [-79.6633928, 43.5460527]
        ]
      ],
      [
        [
          [-79.6627063, 43.5461446],
          [-79.6626849, 43.5461729],
          [-79.6627067, 43.546182],
          [-79.662695, 43.546198],
          [-79.6626836, 43.5462135],
          [-79.6626614, 43.5462048],
          [-79.6626416, 43.5462324],
          [-79.6626747, 43.5462457],
          [-79.6626547, 43.5462725],
          [-79.6626805, 43.5462828],
          [-79.662656, 43.546316],
          [-79.6626303, 43.5463057],
          [-79.6626105, 43.5463316],
          [-79.6626543, 43.5463491],
          [-79.6626343, 43.5463765],
          [-79.6626583, 43.5463862],
          [-79.6626329, 43.5464194],
          [-79.6626098, 43.5464103],
          [-79.6625898, 43.5464377],
          [-79.6624685, 43.5463897],
          [-79.6625329, 43.5463005],
          [-79.6624876, 43.5462825],
          [-79.6625512, 43.5461958],
          [-79.6625218, 43.5461839],
          [-79.6625867, 43.5460966],
          [-79.6627063, 43.5461446]
        ]
      ]
    ]
  }
}
