{
  "type": "Feature",
  "id": "MN",
  "properties": {
    "buildingCode": "MN",
    "name": "Maanjiwe nendamowinan",
    "category": "academic",
    "source": "OpenStreetMap",
    "sourceIds": ["way/172234228"],
    "matchMethods": ["exact-label"],
    "lastVerified": "2026-08-14",
    "verificationStatus": "verified"
  },
  "geometry": {
    "type": "Polygon",
    "coordinates": [
      [
        [-79.666085, 43.5506116],
        [-79.6660398, 43.5505963],
        [-79.6659474, 43.5505651],
        [-79.6658791, 43.5505421],
        [-79.6657856, 43.5506877],
        [-79.6657612, 43.5506794],
        [-79.6657517, 43.5506762],
        [-79.6656482, 43.5508314],
        [-79.6656884, 43.5508453],
        [-79.6656027, 43.550983],
        [-79.6655598, 43.5509686],
        [-79.6654967, 43.5509474],
        [-79.6654279, 43.5510545],
        [-79.6653924, 43.5511097],
        [-79.665411, 43.551116],
        [-79.6654395, 43.5511256],
        [-79.6654688, 43.5511355],
        [-79.6653779, 43.551277],
        [-79.6653606, 43.551304],
        [-79.6654141, 43.5513221],
        [-79.6655951, 43.5513831],
        [-79.6656143, 43.5513532],
        [-79.66566, 43.5513686],
        [-79.6656209, 43.5514293],
        [-79.6656092, 43.5514475],
        [-79.6658728, 43.5515365],
        [-79.6658851, 43.5515406],
        [-79.6660256, 43.5513217],
        [-79.6660595, 43.5513331],
        [-79.6660962, 43.5513455],
        [-79.6661853, 43.5512068],
        [-79.6662, 43.5511839],
        [-79.6661614, 43.5511709],
        [-79.6660916, 43.5511474],
        [-79.6661769, 43.5510149],
        [-79.6662458, 43.5510396],
        [-79.6663195, 43.5510644],
        [-79.6664267, 43.5508975],
        [-79.6663878, 43.5508843],
        [-79.6663536, 43.5508728],
        [-79.6664437, 43.5507326],
        [-79.6664329, 43.550729],
        [-79.6663104, 43.5506876],
        [-79.666297, 43.5506831],
        [-79.6662837, 43.5506786],
        [-79.6662414, 43.5506644],
        [-79.6662275, 43.5506597],
        [-79.6662132, 43.5506549],
        [-79.6661333, 43.5506279],
        [-79.6661098, 43.55062],
        [-79.666085, 43.5506116]
      ]
    ]
  }
}
