{
  "type": "Feature",
  "id": "MV-2",
  "properties": {
    "buildingCode": "MV",
    "name": "MaGrath Valley",
    "category": "residence",
    "source": "OpenStreetMap",
    "sourceIds": ["way/1546184327"],
    "matchMethods": ["override"],
    "lastVerified": "2026-08-14",
    "verificationStatus": "verified"
  },
  "geometry": {
    "type": "Polygon",
    "coordinates": [
      [
        [-79.6620259, 43.5461057],
        [-79.6619996, 43.5461246],
        [-79.6620086, 43.5461331],
        [-79.6619382, 43.5461902],
        [-79.6619292, 43.5461842],
        [-79.6619029, 43.5462044],
        [-79.6618857, 43.5461929],
        [-79.6618667, 43.5462087],
        [-79.6618757, 43.5462152],
        [-79.6618043, 43.5462738],
        [-79.6617935, 43.5462671],
        [-79.6617717, 43.5462852],
        [-79.6617496, 43.546303],
        [-79.6617603, 43.5463097],
        [-79.6616896, 43.5463684],
        [-79.6616794, 43.5463617],
        [-79.6616548, 43.546382],
        [-79.6615358, 43.5463053],
        [-79.6615598, 43.5462863],
        [-79.6615527, 43.5462816],
        [-79.6615708, 43.5462666],
        [-79.6615442, 43.5462495],
        [-79.6615804, 43.5462191],
        [-79.6616069, 43.5462362],
        [-79.6616256, 43.546221],
        [-79.661633, 43.5462259],
        [-79.6616523, 43.5462094],
        [-79.6616757, 43.5461907],
        [-79.661668, 43.5461858],
        [-79.6616833, 43.5461742],
        [-79.6616571, 43.5461568],
        [-79.6616986, 43.5461244],
        [-79.6617221, 43.54614],
        [-79.6617397, 43.5461262],
        [-79.6617496, 43.5461329],
        [-79.6617702, 43.5461162],
        [-79.6617866, 43.5461269],
        [-79.6618097, 43.5461093],
        [-79.6618007, 43.5461039],
        [-79.661818, 43.54609],
        [-79.6617931, 43.5460736],
        [-79.6618311, 43.5460425],
        [-79.6618572, 43.5460592],
        [-79.6618732, 43.5460457],
        [-79.6618802, 43.5460503],
        [-79.6619051, 43.546029],
        [-79.6620259, 43.5461057]
      ]
    ]
  }
}
