{
  "type": "Feature",
  "id": "MV-3",
  "properties": {
    "buildingCode": "MV",
    "name": "MaGrath Valley",
    "category": "residence",
    "source": "OpenStreetMap",
    "sourceIds": ["way/1546184329"],
    "matchMethods": ["override"],
    "lastVerified": "2026-08-14",
    "verificationStatus": "verified"
  },
  "geometry": {
    "type": "Polygon",
    "coordinates": [
      [
        [-79.6614515, 43.546145],
        [-79.6614239, 43.5461264],
        [-79.6614293, 43.5461219],
        [-79.6614086, 43.5461085],
        [-79.66143, 43.5460902],
        [-79.6613893, 43.5460637],
        [-79.6613675, 43.5460818],
        [-79.6613491, 43.5460702],
        [-79.6613435, 43.546075],
        [-79.6613169, 43.5460577],
        [-79.6612936, 43.5460426],
        [-79.6612988, 43.5460382],
        [-79.6612821, 43.5460282],
        [-79.6613053, 43.5460089],
        [-79.6612583, 43.5459784],
        [-79.6612364, 43.5459971],
        [-79.6612214, 43.5459881],
        [-79.6612182, 43.5459908],
        [-79.661189, 43.5459717],
        [-79.6611657, 43.5459568],
        [-79.6611674, 43.5459553],
        [-79.6611485, 43.5459431],
        [-79.6611722, 43.5459234],
        [-79.6611306, 43.5458971],
        [-79.6611073, 43.5459163],
        [-79.661088, 43.5459042],
        [-79.6610818, 43.5459094],
        [-79.6610519, 43.5458903],
        [-79.6609484, 43.5459766],
        [-79.6609764, 43.5459952],
        [-79.6609686, 43.5460016],
        [-79.6610489, 43.546053],
        [-79.6610571, 43.5460462],
        [-79.6610806, 43.5460613],
        [-79.6611076, 43.5460793],
        [-79.6610984, 43.5460864],
        [-79.6611767, 43.5461361],
        [-79.6611853, 43.5461296],
        [-79.6612084, 43.5461445],
        [-79.6612356, 43.5461625],
        [-79.6612264, 43.5461695],
        [-79.661305, 43.5462212],
        [-79.6613142, 43.546214],
        [-79.6613438, 43.5462331],
        [-79.6614515, 43.546145]
      ]
    ]
  }
}
