{
  "type": "Feature",
  "id": "MV-4",
  "properties": {
    "buildingCode": "MV",
    "name": "MaGrath Valley",
    "category": "residence",
    "source": "OpenStreetMap",
    "sourceIds": ["way/1546184330"],
    "matchMethods": ["override"],
    "lastVerified": "2026-08-14",
    "verificationStatus": "verified"
  },
  "geometry": {
    "type": "Polygon",
    "coordinates": [
      [
        [-79.6614139, 43.5453443],
        [-79.6613877, 43.5453653],
        [-79.6613994, 43.5453728],
        [-79.6613835, 43.5453858],
        [-79.6614029, 43.5453986],
        [-79.6613669, 43.5454276],
        [-79.6613478, 43.545415],
        [-79.6613291, 43.5454301],
        [-79.6613252, 43.5454276],
        [-79.6613021, 43.5454468],
        [-79.6612831, 43.5454622],
        [-79.6612867, 43.5454647],
        [-79.6612732, 43.5454758],
        [-79.6612933, 43.5454893],
        [-79.661252, 43.5455231],
        [-79.66123, 43.5455089],
        [-79.6612136, 43.5455225],
        [-79.6612079, 43.5455193],
        [-79.6611841, 43.5455387],
        [-79.6612007, 43.5455492],
        [-79.6611801, 43.5455655],
        [-79.6611846, 43.5455684],
        [-79.6611725, 43.5455783],
        [-79.661197, 43.5455942],
        [-79.6611546, 43.545629],
        [-79.6611285, 43.5456127],
        [-79.661111, 43.5456272],
        [-79.6611056, 43.5456239],
        [-79.6610838, 43.5456419],
        [-79.6610627, 43.5456588],
        [-79.6610687, 43.5456626],
        [-79.6610515, 43.5456768],
        [-79.6610729, 43.5456914],
        [-79.6610359, 43.5457217],
        [-79.6610137, 43.5457066],
        [-79.6609965, 43.5457205],
        [-79.6609908, 43.545717],
        [-79.6609669, 43.5457367],
        [-79.6609462, 43.5457537],
        [-79.660952, 43.5457575],
        [-79.6609426, 43.545765],
        [-79.6609363, 43.5457701],
        [-79.6609603, 43.5457858],
        [-79.6609227, 43.5458167],
        [-79.6608973, 43.5458008],
        [-79.6608801, 43.5458146],
        [-79.6608756, 43.5458118],
        [-79.6608507, 43.5458317],
        [-79.6607314, 43.5457556],
        [-79.6607573, 43.5457352],
        [-79.6607469, 43.5457285],
        [-79.6608165, 43.5456701],
        [-79.6608269, 43.5456766],
        [-79.6608467, 43.5456597],
        [-79.6608701, 43.5456407],
        [-79.6608619, 43.5456355],
        [-79.6609338, 43.5455756],
        [-79.6609423, 43.5455812],
        [-79.6609617, 43.5455645],
        [-79.660986, 43.5455449],
        [-79.6609778, 43.5455395],
        [-79.6610474, 43.5454817],
        [-79.6610573, 43.5454881],
        [-79.6610775, 43.5454714],
        [-79.6610627, 43.545462],
        [-79.6610873, 43.5454421],
        [-79.6610786, 43.5454366],
        [-79.6611502, 43.5453777],
        [-79.6611611, 43.5453846],
        [-79.6611792, 43.5453687],
        [-79.6612031, 43.545348],
        [-79.661193, 43.5453415],
        [-79.6612634, 43.5452834],
        [-79.6612749, 43.5452906],
        [-79.6613012, 43.545269],
        [-79.6614139, 43.5453443]
      ]
    ]
  }
}
