{
  "type": "Feature",
  "id": "MV-5",
  "properties": {
    "buildingCode": "MV",
    "name": "MaGrath Valley",
    "category": "residence",
    "source": "OpenStreetMap",
    "sourceIds": ["way/1546184331"],
    "matchMethods": ["override"],
    "lastVerified": "2026-08-14",
    "verificationStatus": "verified"
  },
  "geometry": {
    "type": "Polygon",
    "coordinates": [
      [
        [-79.6622002, 43.5456214],
        [-79.662172, 43.545603],
        [-79.6621813, 43.5455956],
        [-79.6620994, 43.5455437],
        [-79.6620904, 43.5455505],
        [-79.6620671, 43.5455348],
        [-79.662042, 43.5455186],
        [-79.6620502, 43.5455116],
        [-79.6619695, 43.5454603],
        [-79.6619613, 43.545467],
        [-79.6619339, 43.5454489],
        [-79.6619127, 43.5454341],
        [-79.6619209, 43.5454269],
        [-79.6618403, 43.5453757],
        [-79.6618331, 43.5453819],
        [-79.6618084, 43.5453661],
        [-79.6617881, 43.5453831],
        [-79.6617614, 43.5453668],
        [-79.6617709, 43.545359],
        [-79.6616929, 43.5453091],
        [-79.6616837, 43.5453156],
        [-79.6616521, 43.5452951],
        [-79.6615446, 43.5453842],
        [-79.6615758, 43.5454033],
        [-79.6615699, 43.5454081],
        [-79.661585, 43.5454179],
        [-79.661563, 43.5454362],
        [-79.6616091, 43.5454653],
        [-79.6616311, 43.5454469],
        [-79.6616495, 43.5454584],
        [-79.6616554, 43.5454543],
        [-79.6616821, 43.5454717],
        [-79.6617008, 43.5454562],
        [-79.6617239, 43.545471],
        [-79.6617196, 43.5454748],
        [-79.6617334, 43.5454832],
        [-79.6617146, 43.5454989],
        [-79.6617653, 43.5455313],
        [-79.6617834, 43.5455168],
        [-79.6617989, 43.5455263],
        [-79.6618031, 43.5455225],
        [-79.6618257, 43.5455376],
        [-79.6618524, 43.5455553],
        [-79.6618495, 43.5455583],
        [-79.6618623, 43.5455669],
        [-79.661843, 43.545583],
        [-79.6618955, 43.5456161],
        [-79.661915, 43.5456003],
        [-79.661929, 43.5456094],
        [-79.6619339, 43.5456056],
        [-79.6619602, 43.5456227],
        [-79.6619855, 43.5456396],
        [-79.6619806, 43.5456436],
        [-79.6619905, 43.5456499],
        [-79.661968, 43.5456682],
        [-79.6620173, 43.5456997],
        [-79.6620397, 43.5456816],
        [-79.6620592, 43.5456945],
        [-79.662065, 43.5456898],
        [-79.6620933, 43.5457076],
        [-79.6622002, 43.5456214]
      ]
    ]
  }
}
