{
  "type": "Feature",
  "id": "MV-6",
  "properties": {
    "buildingCode": "MV",
    "name": "MaGrath Valley",
    "category": "residence",
    "source": "OpenStreetMap",
    "sourceIds": ["way/1546184332"],
    "matchMethods": ["override"],
    "lastVerified": "2026-08-14",
    "verificationStatus": "verified"
  },
  "geometry": {
    "type": "Polygon",
    "coordinates": [
      [
        [-79.6618991, 43.5458081],
        [-79.6618718, 43.5457905],
        [-79.6618765, 43.5457864],
        [-79.6618578, 43.5457741],
        [-79.6618794, 43.545756],
        [-79.6618384, 43.5457298],
        [-79.6618153, 43.545748],
        [-79.6617944, 43.5457344],
        [-79.6617894, 43.5457383],
        [-79.6617674, 43.5457245],
        [-79.6617515, 43.5457379],
        [-79.6617235, 43.5457203],
        [-79.6617286, 43.545716],
        [-79.6617137, 43.5457071],
        [-79.6617373, 43.5456869],
        [-79.6616881, 43.5456553],
        [-79.6616645, 43.5456749],
        [-79.661648, 43.5456643],
        [-79.6616429, 43.5456684],
        [-79.6616194, 43.5456535],
        [-79.6616034, 43.5456669],
        [-79.661577, 43.54565],
        [-79.6615818, 43.5456459],
        [-79.6615675, 43.5456368],
        [-79.6615914, 43.5456167],
        [-79.661545, 43.5455873],
        [-79.6615216, 43.5456066],
        [-79.6615029, 43.5455949],
        [-79.6614975, 43.5455996],
        [-79.6614675, 43.5455805],
        [-79.6613612, 43.545668],
        [-79.6613906, 43.5456863],
        [-79.661383, 43.5456926],
        [-79.6614642, 43.5457435],
        [-79.6614724, 43.5457369],
        [-79.6614992, 43.5457541],
        [-79.6615148, 43.5457408],
        [-79.6615371, 43.5457545],
        [-79.6615275, 43.5457625],
        [-79.6616098, 43.5458146],
        [-79.6616183, 43.5458074],
        [-79.6616477, 43.5458257],
        [-79.6616619, 43.5458134],
        [-79.6616836, 43.5458271],
        [-79.6616747, 43.5458347],
        [-79.6617574, 43.5458857],
        [-79.6617651, 43.5458792],
        [-79.6617941, 43.545897],
        [-79.6618991, 43.5458081]
      ]
    ]
  }
}
