{
  "type": "Feature",
  "id": "NRB",
  "properties": {
    "buildingCode": "NRB",
    "name": "New Residence Building",
    "category": "residence",
    "source": "OpenStreetMap",
    "sourceIds": ["way/1545517526"],
    "matchMethods": ["exact-label"],
    "lastVerified": "2026-08-14",
    "verificationStatus": "verified"
  },
  "geometry": {
    "type": "Polygon",
    "coordinates": [
      [
        [-79.6662056, 43.5492595],
        [-79.6662507, 43.5491183],
        [-79.6668375, 43.5492244],
        [-79.666873, 43.5492373],
        [-79.6668966, 43.5492506],
        [-79.6669155, 43.5492673],
        [-79.6669316, 43.5492884],
        [-79.6670938, 43.549559],
        [-79.6670997, 43.5495664],
        [-79.6671078, 43.5495718],
        [-79.6671205, 43.5495775],
        [-79.6675373, 43.5497194],
        [-79.6674678, 43.549836],
        [-79.6670062, 43.5496841],
        [-79.6669862, 43.5496758],
        [-79.6669688, 43.5496665],
        [-79.666953, 43.5496538],
        [-79.6669405, 43.5496402],
        [-79.666767, 43.5493748],
        [-79.6667604, 43.5493661],
        [-79.6667482, 43.5493577],
        [-79.6667356, 43.549353],
        [-79.6662056, 43.5492595]
      ]
    ]
  }
}
