{
  "type": "Feature",
  "id": "NSB",
  "properties": {
    "buildingCode": "NSB",
    "name": "New Science Building",
    "category": "academic",
    "source": "OpenStreetMap",
    "sourceIds": ["way/1479019019"],
    "matchMethods": ["override"],
    "lastVerified": "2026-08-14",
    "verificationStatus": "verified"
  },
  "geometry": {
    "type": "Polygon",
    "coordinates": [
      [
        [-79.6615701, 43.5491192],
        [-79.661333, 43.5490892],
        [-79.6612981, 43.5490848],
        [-79.6612921, 43.5491096],
        [-79.6612778, 43.5491686],
        [-79.6612309, 43.5493622],
        [-79.6612115, 43.5493598],
        [-79.6611897, 43.5493572],
        [-79.6611781, 43.5493558],
        [-79.661159, 43.5493535],
        [-79.6611445, 43.5493517],
        [-79.6611307, 43.5493501],
        [-79.6611194, 43.5493487],
        [-79.6611029, 43.5493467],
        [-79.6604699, 43.5492699],
        [-79.660526, 43.5490355],
        [-79.6604864, 43.549031],
        [-79.6605089, 43.5489451],
        [-79.66052, 43.5488984],
        [-79.6605266, 43.5488768],
        [-79.6605636, 43.5488821],
        [-79.660586, 43.5487909],
        [-79.6605902, 43.548774],
        [-79.660594, 43.5487584],
        [-79.6607731, 43.5487813],
        [-79.6607774, 43.5487632],
        [-79.6608036, 43.5487665],
        [-79.6608369, 43.5487708],
        [-79.6611793, 43.5488162],
        [-79.6611988, 43.5487348],
        [-79.661243, 43.5487408],
        [-79.661241, 43.5487495],
        [-79.6614592, 43.5487772],
        [-79.6615091, 43.5487666],
        [-79.6615153, 43.5487414],
        [-79.6616246, 43.5487547],
        [-79.6616111, 43.5488105],
        [-79.6615963, 43.548872],
        [-79.6616296, 43.5488765],
        [-79.661622, 43.5489094],
        [-79.6615701, 43.5491192]
      ]
    ]
  }
}
