{
  "type": "Feature",
  "id": "MC",
  "properties": {
    "buildingCode": "MC",
    "name": "McLuhan Court",
    "category": "residence",
    "source": "OpenStreetMap",
    "sourceIds": ["way/1546178171", "way/1546178172", "way/1546178173", "way/1546178188"],
    "matchMethods": ["override"],
    "lastVerified": "2026-08-14",
    "verificationStatus": "verified"
  },
  "geometry": {
    "type": "MultiPolygon",
    "coordinates": [
      [
        [
          [-79.66655, 43.547943],
          [-79.6664484, 43.5480177],
          [-79.6664213, 43.5479984],
          [-79.6663325, 43.5480636],
          [-79.6663485, 43.548075],
          [-79.6662531, 43.5481452],
          [-79.666275, 43.5481609],
          [-79.6662498, 43.5481794],
          [-79.6661754, 43.5482341],
          [-79.6661651, 43.5482268],
          [-79.6660629, 43.5483019],
          [-79.6659626, 43.5482302],
          [-79.666064, 43.5481555],
          [-79.6660716, 43.5481609],
          [-79.6661257, 43.5481211],
          [-79.6661657, 43.5480916],
          [-79.6661511, 43.5480812],
          [-79.6662075, 43.5480397],
          [-79.6662479, 43.5480099],
          [-79.6662302, 43.5479973],
          [-79.6662805, 43.5479603],
          [-79.6663273, 43.5479258],
          [-79.6663534, 43.5479444],
          [-79.6664061, 43.5479057],
          [-79.6664512, 43.5478725],
          [-79.66655, 43.547943]
        ]
      ],
      [
        [
          [-79.6668176, 43.5478233],
          [-79.6667145, 43.5477554],
          [-79.6667276, 43.5477453],
          [-79.6666262, 43.5476806],
          [-79.6666154, 43.5476893],
          [-79.6665136, 43.547623],
          [-79.6665032, 43.5476314],
          [-79.6664066, 43.5475617],
          [-79.6663954, 43.5475705],
          [-79.6663444, 43.5475361],
          [-79.6662514, 43.5476098],
          [-79.6663025, 43.547644],
          [-79.6663151, 43.547634],
          [-79.6663627, 43.5476677],
          [-79.6664135, 43.5477037],
          [-79.6664234, 43.5476956],
          [-79.6665257, 43.5477628],
          [-79.6665356, 43.5477541],
          [-79.6666313, 43.5478184],
          [-79.6666226, 43.5478251],
          [-79.6667246, 43.5478975],
          [-79.6668176, 43.5478233]
        ]
      ],
      [
        [
          [-79.6662497, 43.547413],
          [-79.6661257, 43.5475083],
          [-79.6661031, 43.547493],
          [-79.6660114, 43.5475627],
          [-79.6659857, 43.5475454],
          [-79.6659366, 43.5475832],
          [-79.6658924, 43.5476172],
          [-79.6658687, 43.547601],
          [-79.6657741, 43.5476744],
          [-79.6656788, 43.5476077],
          [-79.6657711, 43.5475337],
          [-79.6658053, 43.5475576],
          [-79.6658953, 43.5474862],
          [-79.6659246, 43.5475044],
          [-79.6660131, 43.5474316],
          [-79.6660382, 43.5474486],
          [-79.6661622, 43.5473532],
          [-79.6662497, 43.547413]
        ]
      ],
      [
        [
          [-79.6658349, 43.5481369],
          [-79.6657381, 43.5480663],
          [-79.6657571, 43.5480527],
          [-79.6656602, 43.547982],
          [-79.6656776, 43.5479694],
          [-79.6655823, 43.5478994],
          [-79.6656036, 43.5478841],
          [-79.6655087, 43.5478153],
          [-79.6655407, 43.5477927],
          [-79.665443, 43.5477256],
          [-79.6655308, 43.54766],
          [-79.6656277, 43.5477308],
          [-79.6656084, 43.5477447],
          [-79.6657039, 43.5478143],
          [-79.6656838, 43.5478288],
          [-79.66578, 43.5478989],
          [-79.6657603, 43.5479131],
          [-79.6658554, 43.5479825],
          [-79.6658361, 43.5479964],
          [-79.6659324, 43.5480667],
          [-79.6658349, 43.5481369]
        ]
      ]
    ]
  }
}
