{
  "type": "Feature",
  "id": "PP",
  "properties": {
    "buildingCode": "PP",
    "name": "Putnam Place",
    "category": "residence",
    "source": "OpenStreetMap",
    "sourceIds": ["way/1546179831", "way/1546179832", "way/1546179833", "way/1546179834"],
    "matchMethods": ["override"],
    "lastVerified": "2026-08-14",
    "verificationStatus": "verified"
  },
  "geometry": {
    "type": "MultiPolygon",
    "coordinates": [
      [
        [
          [-79.665313, 43.5469331],
          [-79.6652042, 43.5469794],
          [-79.6652022, 43.5469768],
          [-79.6650855, 43.5470276],
          [-79.6650762, 43.5470162],
          [-79.6649604, 43.5470669],
          [-79.6648856, 43.546981],
          [-79.6650035, 43.546928],
          [-79.6650139, 43.5469405],
          [-79.6650725, 43.5469147],
          [-79.6651313, 43.5468889],
          [-79.6651376, 43.5468963],
          [-79.6652437, 43.5468478],
          [-79.665313, 43.5469331]
        ]
      ],
      [
        [
          [-79.6652304, 43.5467537],
          [-79.6651749, 43.5466881],
          [-79.6651779, 43.5466863],
          [-79.6651085, 43.5466053],
          [-79.6650732, 43.5466215],
          [-79.6649968, 43.5465307],
          [-79.6648831, 43.5465809],
          [-79.6649599, 43.5466732],
          [-79.664976, 43.546666],
          [-79.6650108, 43.5467064],
          [-79.6650476, 43.5467491],
          [-79.6650598, 43.5467437],
          [-79.6651118, 43.5468061],
          [-79.6652304, 43.5467537]
        ]
      ],
      [
        [
          [-79.6648594, 43.5464423],
          [-79.6647412, 43.5464938],
          [-79.6647341, 43.5464847],
          [-79.6646737, 43.5465107],
          [-79.6646169, 43.5465352],
          [-79.6646284, 43.5465474],
          [-79.6645927, 43.5465638],
          [-79.6645125, 43.5466006],
          [-79.6645012, 43.546587],
          [-79.6644412, 43.5466149],
          [-79.664387, 43.5466402],
          [-79.6643107, 43.5465538],
          [-79.6644291, 43.5465015],
          [-79.6644404, 43.5465139],
          [-79.6645539, 43.546463],
          [-79.6645429, 43.5464504],
          [-79.6646634, 43.546396],
          [-79.6646743, 43.5464082],
          [-79.6647888, 43.546358],
          [-79.6648594, 43.5464423]
        ]
      ],
      [
        [
          [-79.6646527, 43.546982],
          [-79.6645846, 43.5468985],
          [-79.6645544, 43.5469111],
          [-79.6645256, 43.5468749],
          [-79.6644865, 43.5468257],
          [-79.6644719, 43.546832],
          [-79.6644034, 43.5467457],
          [-79.6642663, 43.5468023],
          [-79.6643394, 43.5468891],
          [-79.6643661, 43.546878],
          [-79.6644362, 43.5469608],
          [-79.6644633, 43.5469489],
          [-79.6645347, 43.5470344],
          [-79.6646527, 43.546982]
        ]
      ]
    ]
  }
}
