{
  "type": "Feature",
  "id": "OPH",
  "properties": {
    "buildingCode": "OPH",
    "name": "Oscar Peterson Hall",
    "category": "residence",
    "source": "OpenStreetMap",
    "sourceIds": ["way/1127652967", "way/116410209", "way/116411464"],
    "matchMethods": ["entrance-membership", "exact-label"],
    "lastVerified": "2026-08-14",
    "verificationStatus": "verified"
  },
  "geometry": {
    "type": "Polygon",
    "coordinates": [
      [
        [-79.6656991, 43.548785],
        [-79.6656701, 43.5487801],
        [-79.6651638, 43.5486928],
        [-79.6651771, 43.5486525],
        [-79.6651655, 43.5486505],
        [-79.6651646, 43.5486533],
        [-79.6650984, 43.5486419],
        [-79.6651745, 43.5484096],
        [-79.6652116, 43.5482283],
        [-79.66529, 43.5482367],
        [-79.6652979, 43.5481981],
        [-79.6654686, 43.5482165],
        [-79.6654652, 43.5482328],
        [-79.6655363, 43.5482404],
        [-79.6655345, 43.5482492],
        [-79.6655305, 43.548269],
        [-79.6655266, 43.5482686],
        [-79.6655164, 43.5482675],
        [-79.6655069, 43.5483138],
        [-79.6655046, 43.548325],
        [-79.6653419, 43.5483075],
        [-79.6653171, 43.5484304],
        [-79.6652751, 43.5485488],
        [-79.6652511, 43.5486163],
        [-79.6652708, 43.5486199],
        [-79.6652774, 43.5486013],
        [-79.6652859, 43.5486029],
        [-79.665673, 43.548675],
        [-79.6657742, 43.5486939],
        [-79.6659117, 43.5485909],
        [-79.6659355, 43.5486076],
        [-79.6659573, 43.5486229],
        [-79.6660137, 43.5485805],
        [-79.6662079, 43.5487164],
        [-79.6664101, 43.5488315],
        [-79.6664006, 43.5488402],
        [-79.6664287, 43.5488564],
        [-79.6664313, 43.5488579],
        [-79.6664072, 43.5488799],
        [-79.6664845, 43.5489244],
        [-79.6663775, 43.5490221],
        [-79.6663597, 43.5490119],
        [-79.6663154, 43.5490524],
        [-79.6662895, 43.5490375],
        [-79.6662828, 43.5490436],
        [-79.6662118, 43.5490028],
        [-79.6662903, 43.5489311],
        [-79.6662608, 43.5489141],
        [-79.6661478, 43.5490174],
        [-79.6658811, 43.5488326],
        [-79.6658629, 43.54882],
        [-79.6658168, 43.548855],
        [-79.6657327, 43.5487967],
        [-79.6657396, 43.5487919],
        [-79.6656991, 43.548785]
      ]
    ]
  }
}
