{
  "type": "Feature",
  "id": "DV",
  "properties": {
    "buildingCode": "DV",
    "name": "William G. Davis Building",
    "category": "academic",
    "source": "OpenStreetMap",
    "sourceIds": ["relation/20449624"],
    "matchMethods": ["reviewed-relation"],
    "lastVerified": "2026-08-14",
    "verificationStatus": "verified"
  },
  "geometry": {
    "type": "Polygon",
    "coordinates": [
      [
        [-79.6624519, 43.5482539],
        [-79.6624276, 43.5483547],
        [-79.6624669, 43.5483597],
        [-79.6624538, 43.5484142],
        [-79.6623893, 43.548406],
        [-79.6623837, 43.5484295],
        [-79.6623644, 43.5484271],
        [-79.661815, 43.5483578],
        [-79.6617829, 43.5483532],
        [-79.6617764, 43.5483802],
        [-79.6617704, 43.5484051],
        [-79.6617439, 43.5485149],
        [-79.6617287, 43.5485777],
        [-79.6617921, 43.5486103],
        [-79.6618417, 43.5485618],
        [-79.6618522, 43.5485675],
        [-79.6618809, 43.5485395],
        [-79.6618687, 43.5485329],
        [-79.6618796, 43.5485223],
        [-79.6619181, 43.5484846],
        [-79.6619578, 43.5484458],
        [-79.661971, 43.5484429],
        [-79.6619831, 43.5484434],
        [-79.6619967, 43.548452],
        [-79.6619997, 43.5484594],
        [-79.6619989, 43.5484679],
        [-79.661973, 43.5484933],
        [-79.6620858, 43.5485542],
        [-79.6620938, 43.5485463],
        [-79.6620995, 43.5485443],
        [-79.6621085, 43.5485459],
        [-79.6621142, 43.5485507],
        [-79.6621124, 43.5485567],
        [-79.6621395, 43.5485713],
        [-79.6621469, 43.5485692],
        [-79.6621547, 43.5485704],
        [-79.6621594, 43.5485755],
        [-79.6621579, 43.5485805],
        [-79.66215, 43.5485884],
        [-79.6622571, 43.5486459],
        [-79.6623061, 43.5486722],
        [-79.6623281, 43.548684],
        [-79.6623364, 43.5486762],
        [-79.6623435, 43.5486748],
        [-79.6623511, 43.5486767],
        [-79.6623571, 43.5486821],
        [-79.6623569, 43.5486887],
        [-79.6623789, 43.5487004],
        [-79.6623877, 43.5486987],
        [-79.6623974, 43.5487011],
        [-79.662402, 43.5487067],
        [-79.6624004, 43.5487141],
        [-79.6623946, 43.5487197],
        [-79.6625129, 43.5487832],
        [-79.6625382, 43.5487585],
        [-79.662551, 43.5487561],
        [-79.6625617, 43.548757],
        [-79.6625708, 43.5487621],
        [-79.6625758, 43.5487649],
        [-79.6625794, 43.5487723],
        [-79.662578, 43.5487799],
        [-79.6625669, 43.5487908],
        [-79.6626931, 43.5488585],
        [-79.6626706, 43.5489523],
        [-79.6627711, 43.548965],
        [-79.6627902, 43.5488857],
        [-79.6627962, 43.5488782],
        [-79.6628069, 43.5488749],
        [-79.6628305, 43.5488779],
        [-79.6628376, 43.5488852],
        [-79.6628388, 43.5488918],
        [-79.6628262, 43.5489441],
        [-79.6628935, 43.5489526],
        [-79.6628969, 43.5489383],
        [-79.6629803, 43.5489489],
        [-79.6629769, 43.5489631],
        [-79.6631182, 43.548981],
        [-79.6631216, 43.5489668],
        [-79.6632022, 43.548977],
        [-79.6631988, 43.5489913],
        [-79.6633674, 43.5490126],
        [-79.6633815, 43.5490144],
        [-79.6633358, 43.5492038],
        [-79.663329, 43.5492319],
        [-79.6632885, 43.5492268],
        [-79.6632859, 43.5492378],
        [-79.6632836, 43.5492472],
        [-79.6632814, 43.5492561],
        [-79.6632722, 43.5492943],
        [-79.6632678, 43.5493128],
        [-79.6632617, 43.5493183],
        [-79.6632525, 43.549323],
        [-79.6632308, 43.5493203],
        [-79.6632223, 43.5493138],
        [-79.6632215, 43.5493069],
        [-79.6632295, 43.5492738],
        [-79.6631336, 43.5492617],
        [-79.6631313, 43.5492711],
        [-79.6630507, 43.5492609],
        [-79.663053, 43.5492515],
        [-79.6630184, 43.5492472],
        [-79.6629116, 43.5492336],
        [-79.6629094, 43.549243],
        [-79.662826, 43.5492324],
        [-79.6628283, 43.549223],
        [-79.6626989, 43.5492066],
        [-79.6627039, 43.5491857],
        [-79.6627159, 43.5491361],
        [-79.6626317, 43.5491254],
        [-79.6626195, 43.5491756],
        [-79.6625628, 43.5494088],
        [-79.6625598, 43.5494213],
        [-79.6625568, 43.5494334],
        [-79.6625539, 43.5494453],
        [-79.6625989, 43.549451],
        [-79.6626102, 43.5494586],
        [-79.6626129, 43.5494681],
        [-79.6626082, 43.5494783],
        [-79.6626008, 43.549484],
        [-79.6625903, 43.5494867],
        [-79.6624074, 43.5494633],
        [-79.6624137, 43.5494375],
        [-79.6624145, 43.5494343],
        [-79.6624017, 43.5494327],
        [-79.6623641, 43.5494279],
        [-79.6623546, 43.5494267],
        [-79.6623618, 43.5493975],
        [-79.6623756, 43.5493412],
        [-79.6624196, 43.549162],
        [-79.6622709, 43.5490838],
        [-79.6622611, 43.5490936],
        [-79.6622497, 43.5490963],
        [-79.6622395, 43.549096],
        [-79.6622234, 43.5490887],
        [-79.6622209, 43.5490812],
        [-79.6622219, 43.549073],
        [-79.6622469, 43.5490481],
        [-79.6621818, 43.5490139],
        [-79.6621085, 43.5490871],
        [-79.6618945, 43.5489745],
        [-79.6619135, 43.5489555],
        [-79.661899, 43.5489479],
        [-79.6619208, 43.5489261],
        [-79.6619329, 43.548914],
        [-79.6619566, 43.5488903],
        [-79.6618843, 43.5488522],
        [-79.6618779, 43.5488585],
        [-79.6618716, 43.5488616],
        [-79.6618655, 43.5488619],
        [-79.6618597, 43.5488606],
        [-79.6618558, 43.5488573],
        [-79.6618546, 43.5488535],
        [-79.6618559, 43.5488501],
        [-79.6618287, 43.5488358],
        [-79.6618257, 43.5488374],
        [-79.6618205, 43.5488381],
        [-79.6618135, 43.5488365],
        [-79.6618094, 43.5488324],
        [-79.6618094, 43.5488278],
        [-79.6618122, 43.5488222],
        [-79.6618172, 43.5488171],
        [-79.6617727, 43.5487936],
        [-79.6617513, 43.5487906],
        [-79.6616622, 43.5487781],
        [-79.6616789, 43.5487622],
        [-79.6616246, 43.5487547],
        [-79.6615153, 43.5487414],
        [-79.6615091, 43.5487666],
        [-79.6614592, 43.5487772],
        [-79.661241, 43.5487495],
        [-79.661243, 43.5487408],
        [-79.6612744, 43.5486111],
        [-79.661276, 43.5486046],
        [-79.6612994, 43.5486075],
        [-79.6613057, 43.5485813],
        [-79.6612815, 43.5485782],
        [-79.6613163, 43.5484341],
        [-79.6613703, 43.5484409],
        [-79.6613755, 43.5484194],
        [-79.6613594, 43.5484173],
        [-79.6613848, 43.5483123],
        [-79.6613679, 43.5483102],
        [-79.6613518, 43.5483081],
        [-79.6613496, 43.548317],
        [-79.6612102, 43.5482993],
        [-79.6612512, 43.5481294],
        [-79.6612447, 43.5481287],
        [-79.6612565, 43.5480794],
        [-79.661239, 43.5480772],
        [-79.6613294, 43.5477001],
        [-79.6613536, 43.5476012],
        [-79.6613722, 43.5476036],
        [-79.6614359, 43.5476116],
        [-79.6614572, 43.5476143],
        [-79.6614674, 43.5475721],
        [-79.6618429, 43.5476198],
        [-79.6618328, 43.5476614],
        [-79.6618239, 43.5476984],
        [-79.6618689, 43.5477041],
        [-79.6619118, 43.5477096],
        [-79.6619029, 43.547747],
        [-79.6618996, 43.5477601],
        [-79.6619608, 43.5477679],
        [-79.6619487, 43.5478179],
        [-79.6619725, 43.5478209],
        [-79.6621958, 43.5478492],
        [-79.6624402, 43.5478802],
        [-79.6624691, 43.5478839],
        [-79.6624927, 43.5478869],
        [-79.662513, 43.5478895],
        [-79.6625075, 43.5479122],
        [-79.6625721, 43.5479204],
        [-79.662559, 43.5479748],
        [-79.6625205, 43.5479699],
        [-79.6624715, 43.548173],
        [-79.6624668, 43.5481922],
        [-79.662461, 43.5482162],
        [-79.6624519, 43.5482539]
      ]
    ]
  }
}
