{
  "type": "Feature",
  "id": "MV-1",
  "properties": {
    "buildingCode": "MV",
    "name": "MaGrath Valley",
    "category": "residence",
    "source": "OpenStreetMap",
    "sourceIds": ["way/1546184326"],
    "matchMethods": ["override"],
    "lastVerified": "2026-08-14",
    "verificationStatus": "verified"
  },
  "geometry": {
    "type": "Polygon",
    "coordinates": [
      [
        [-79.6625149, 43.5457413],
        [-79.6624884, 43.5457629],
        [-79.6625001, 43.5457709],
        [-79.6624275, 43.5458269],
        [-79.6624165, 43.5458201],
        [-79.6623951, 43.5458378],
        [-79.662373, 43.5458562],
        [-79.6623828, 43.5458633],
        [-79.6623117, 43.5459221],
        [-79.6623006, 43.5459153],
        [-79.662276, 43.545936],
        [-79.6622516, 43.5459201],
        [-79.6622329, 43.5459354],
        [-79.6622414, 43.5459411],
        [-79.6621727, 43.5459997],
        [-79.6621616, 43.5459933],
        [-79.6621379, 43.546013],
        [-79.662018, 43.5459365],
        [-79.6620419, 43.5459166],
        [-79.6620358, 43.5459126],
        [-79.6620523, 43.545899],
        [-79.6620275, 43.5458822],
        [-79.662064, 43.5458532],
        [-79.6620891, 43.5458691],
        [-79.6621064, 43.5458547],
        [-79.6621157, 43.5458604],
        [-79.6621349, 43.5458445],
        [-79.6621555, 43.5458573],
        [-79.6621797, 43.5458374],
        [-79.6621729, 43.5458332],
        [-79.6621904, 43.5458198],
        [-79.6621651, 43.5458034],
        [-79.6622068, 43.5457696],
        [-79.662232, 43.5457854],
        [-79.6622462, 43.5457736],
        [-79.6622553, 43.5457793],
        [-79.6622745, 43.5457631],
        [-79.6622989, 43.5457432],
        [-79.662293, 43.5457397],
        [-79.6623031, 43.5457314],
        [-79.662309, 43.5457266],
        [-79.6622833, 43.5457089],
        [-79.6623206, 43.5456793],
        [-79.6623461, 43.5456962],
        [-79.6623534, 43.5456899],
        [-79.6623647, 43.5456801],
        [-79.6623715, 43.5456842],
        [-79.6623975, 43.5456628],
        [-79.6625149, 43.5457413]
      ]
    ]
  }
}
