{
  "type": "Feature",
  "id": "RIH",
  "properties": {
    "buildingCode": "RIH",
    "name": "Roy Ivor Hall",
    "category": "residence",
    "source": "OpenStreetMap",
    "sourceIds": ["way/116412378", "way/116420231", "way/116420232", "way/116420233"],
    "matchMethods": ["override"],
    "lastVerified": "2026-08-14",
    "verificationStatus": "verified"
  },
  "geometry": {
    "type": "MultiPolygon",
    "coordinates": [
      [
        [
          [-79.6669005, 43.5489129],
          [-79.6668402, 43.5488718],
          [-79.6668698, 43.5488512],
          [-79.666839, 43.5488324],
          [-79.6668142, 43.5488486],
          [-79.6667539, 43.5488092],
          [-79.6667882, 43.5487869],
          [-79.6667763, 43.5487792],
          [-79.6668045, 43.5487634],
          [-79.6668343, 43.5487467],
          [-79.6667976, 43.5487235],
          [-79.6667894, 43.5487304],
          [-79.6667556, 43.5487075],
          [-79.6667338, 43.5486927],
          [-79.6667468, 43.5486858],
          [-79.6667208, 43.5486704],
          [-79.6667306, 43.5486627],
          [-79.6667467, 43.5486499],
          [-79.6667536, 43.5486337],
          [-79.6667695, 43.5486457],
          [-79.6667799, 43.5486524],
          [-79.6668047, 43.5486318],
          [-79.6669313, 43.5487209],
          [-79.6669194, 43.5487295],
          [-79.6670022, 43.5487887],
          [-79.6670253, 43.5487737],
          [-79.6670572, 43.5487541],
          [-79.6670732, 43.5487655],
          [-79.6671262, 43.5487265],
          [-79.6671831, 43.5487655],
          [-79.6671456, 43.5487916],
          [-79.6671595, 43.5488024],
          [-79.6671216, 43.5488298],
          [-79.6671915, 43.5488782],
          [-79.6671559, 43.5489018],
          [-79.667163, 43.5489104],
          [-79.6671547, 43.5489292],
          [-79.6671451, 43.5489383],
          [-79.6671264, 43.5489258],
          [-79.6670968, 43.5489455],
          [-79.667087, 43.5489385],
          [-79.6670412, 43.5489061],
          [-79.6670471, 43.5489009],
          [-79.6669916, 43.5488658],
          [-79.6669561, 43.5488924],
          [-79.6669419, 43.5488846],
          [-79.6669005, 43.5489129]
        ]
      ],
      [
        [
          [-79.6675391, 43.5485771],
          [-79.6675662, 43.5485561],
          [-79.6675804, 43.5485658],
          [-79.6676108, 43.5485424],
          [-79.6675944, 43.5485312],
          [-79.6676235, 43.5485088],
          [-79.6675136, 43.5484339],
          [-79.6675523, 43.5484042],
          [-79.6675435, 43.5483982],
          [-79.6675858, 43.5483657],
          [-79.6675305, 43.548328],
          [-79.6674984, 43.5483527],
          [-79.6674655, 43.5483302],
          [-79.6674893, 43.5483118],
          [-79.6674806, 43.5483059],
          [-79.6674902, 43.5482986],
          [-79.6674382, 43.5482632],
          [-79.6674007, 43.5482921],
          [-79.6673912, 43.5482857],
          [-79.6673502, 43.5483173],
          [-79.6673191, 43.548296],
          [-79.6673276, 43.5482895],
          [-79.6672875, 43.5482621],
          [-79.6672683, 43.548249],
          [-79.6672373, 43.5482729],
          [-79.6672188, 43.5482603],
          [-79.6671662, 43.5483008],
          [-79.6672724, 43.5483732],
          [-79.6673142, 43.5484018],
          [-79.6673187, 43.5483983],
          [-79.6673261, 43.5483926],
          [-79.6673951, 43.5484396],
          [-79.6674087, 43.5484489],
          [-79.6673616, 43.5484852],
          [-79.6673823, 43.5484993],
          [-79.6673326, 43.5485376],
          [-79.6673808, 43.5485704],
          [-79.6674155, 43.5485437],
          [-79.6674298, 43.5485535],
          [-79.6674649, 43.5485265],
          [-79.6675391, 43.5485771]
        ]
      ],
      [
        [
          [-79.6668702, 43.5486342],
          [-79.666901, 43.5486068],
          [-79.6669334, 43.548578],
          [-79.6669422, 43.5485702],
          [-79.6669299, 43.5485629],
          [-79.6669549, 43.5485407],
          [-79.6670033, 43.5485693],
          [-79.6670095, 43.5485637],
          [-79.6670517, 43.5485887],
          [-79.6670966, 43.5485488],
          [-79.6670847, 43.5485418],
          [-79.6670942, 43.5485334],
          [-79.6670691, 43.5485186],
          [-79.6670979, 43.5484929],
          [-79.6671267, 43.5485099],
          [-79.6671703, 43.5484712],
          [-79.6671265, 43.5484453],
          [-79.6671356, 43.5484372],
          [-79.6670927, 43.5484119],
          [-79.667148, 43.5483627],
          [-79.6671199, 43.5483461],
          [-79.6671336, 43.5483339],
          [-79.6671011, 43.5483147],
          [-79.6670934, 43.5483216],
          [-79.6670661, 43.5483055],
          [-79.6670213, 43.5483453],
          [-79.6670042, 43.5483605],
          [-79.6669653, 43.5483375],
          [-79.6669384, 43.5483631],
          [-79.666922, 43.5483541],
          [-79.6668654, 43.5484019],
          [-79.6667886, 43.5484928],
          [-79.6667759, 43.5485079],
          [-79.66683, 43.5485355],
          [-79.6667958, 43.5485675],
          [-79.6668041, 43.5485722],
          [-79.666833, 43.5485893],
          [-79.6668174, 43.5486031],
          [-79.666825, 43.5486075],
          [-79.6668702, 43.5486342]
        ]
      ],
      [
        [
          [-79.6667596, 43.5479865],
          [-79.6667657, 43.5479676],
          [-79.6667847, 43.5479547],
          [-79.6668035, 43.5479676],
          [-79.6668276, 43.5479491],
          [-79.6668795, 43.5479848],
          [-79.6668731, 43.5479896],
          [-79.6669299, 43.5480285],
          [-79.6669696, 43.5479981],
          [-79.6669825, 43.548007],
          [-79.6670175, 43.5479802],
          [-79.6670753, 43.5480198],
          [-79.6670464, 43.5480419],
          [-79.6670789, 43.5480641],
          [-79.6671034, 43.5480454],
          [-79.6671589, 43.5480835],
          [-79.6671269, 43.5481079],
          [-79.6671407, 43.5481174],
          [-79.6670962, 43.5481514],
          [-79.6671218, 43.548169],
          [-79.6671316, 43.5481615],
          [-79.667186, 43.5481988],
          [-79.6671532, 43.5482239],
          [-79.6671745, 43.5482386],
          [-79.6671332, 43.5482702],
          [-79.6670116, 43.5481868],
          [-79.6669934, 43.5481743],
          [-79.6669998, 43.5481695],
          [-79.6670064, 43.5481644],
          [-79.6669472, 43.5481238],
          [-79.6669204, 43.5481054],
          [-79.6668732, 43.5481415],
          [-79.6668538, 43.5481282],
          [-79.6668087, 43.5481627],
          [-79.6667554, 43.5481261],
          [-79.66679, 43.5480996],
          [-79.6667718, 43.5480872],
          [-79.6668071, 43.5480602],
          [-79.6667412, 43.548015],
          [-79.6667695, 43.5479933],
          [-79.6667596, 43.5479865]
        ]
      ]
    ]
  }
}
