{
  "type": "Feature",
  "id": "SW",
  "properties": {
    "buildingCode": "SW",
    "name": "Schreiberwood",
    "category": "residence",
    "source": "OpenStreetMap",
    "sourceIds": [
      "way/1545844023",
      "way/1545844024",
      "way/1545844026",
      "way/1545844027",
      "way/1545844028",
      "way/1545844029"
    ],
    "matchMethods": ["override"],
    "lastVerified": "2026-08-14",
    "verificationStatus": "verified"
  },
  "geometry": {
    "type": "MultiPolygon",
    "coordinates": [
      [
        [
          [-79.6676753, 43.549893],
          [-79.6677248, 43.5498505],
          [-79.6677334, 43.5498555],
          [-79.6677792, 43.5498165],
          [-79.6677743, 43.5498136],
          [-79.66782, 43.5497751],
          [-79.6678635, 43.5497398],
          [-79.667908, 43.5497025],
          [-79.667899, 43.5496968],
          [-79.6679423, 43.5496612],
          [-79.6679317, 43.5496547],
          [-79.6679933, 43.5496034],
          [-79.6678892, 43.5495332],
          [-79.667822, 43.5495855],
          [-79.6678298, 43.5495904],
          [-79.6677866, 43.5496258],
          [-79.6677946, 43.5496309],
          [-79.6677491, 43.5496685],
          [-79.6677053, 43.5497061],
          [-79.6677218, 43.5497159],
          [-79.6676769, 43.5497551],
          [-79.6676322, 43.5497939],
          [-79.6676195, 43.5497862],
          [-79.66757, 43.5498287],
          [-79.6676753, 43.549893]
        ]
      ],
      [
        [
          [-79.6675785, 43.5495863],
          [-79.6675189, 43.549545],
          [-79.6675078, 43.5495541],
          [-79.6674437, 43.5495118],
          [-79.6674527, 43.5495051],
          [-79.6674068, 43.5494741],
          [-79.6673948, 43.5494835],
          [-79.6673445, 43.5494483],
          [-79.6672964, 43.5494157],
          [-79.6673077, 43.5494072],
          [-79.6672577, 43.5493734],
          [-79.6672303, 43.5493941],
          [-79.6671703, 43.5493537],
          [-79.6671839, 43.5493432],
          [-79.6671234, 43.5493023],
          [-79.6672172, 43.5492297],
          [-79.6672775, 43.5492708],
          [-79.6672625, 43.5492826],
          [-79.667322, 43.5493226],
          [-79.6673436, 43.5493056],
          [-79.667395, 43.5493414],
          [-79.6673843, 43.5493495],
          [-79.6674326, 43.5493816],
          [-79.6674827, 43.5494151],
          [-79.6674793, 43.5494177],
          [-79.6675263, 43.5494502],
          [-79.6675327, 43.5494454],
          [-79.6675929, 43.5494861],
          [-79.6676087, 43.5494735],
          [-79.6676706, 43.5495157],
          [-79.6675785, 43.5495863]
        ]
      ],
      [
        [
          [-79.6683527, 43.5493091],
          [-79.6683022, 43.5492713],
          [-79.6683145, 43.5492625],
          [-79.6682654, 43.5492265],
          [-79.6682488, 43.5492384],
          [-79.6682027, 43.5492048],
          [-79.6682091, 43.5492002],
          [-79.6681458, 43.5491537],
          [-79.668195, 43.5491179],
          [-79.6682341, 43.5490894],
          [-79.6682982, 43.549136],
          [-79.6682913, 43.5491408],
          [-79.6683374, 43.5491753],
          [-79.6683487, 43.5491675],
          [-79.6683967, 43.5492035],
          [-79.6683856, 43.5492115],
          [-79.668437, 43.54925],
          [-79.6683527, 43.5493091]
        ]
      ],
      [
        [
          [-79.6676932, 43.549351],
          [-79.667606, 43.5492871],
          [-79.6675629, 43.5492556],
          [-79.6677183, 43.5491415],
          [-79.6677049, 43.549132],
          [-79.6678063, 43.5490571],
          [-79.6677904, 43.5490456],
          [-79.6679339, 43.5489427],
          [-79.6679399, 43.5489474],
          [-79.6680567, 43.5488644],
          [-79.6680827, 43.5488833],
          [-79.6681726, 43.5489487],
          [-79.6681477, 43.5489668],
          [-79.6680878, 43.5490102],
          [-79.6680572, 43.5490324],
          [-79.6680451, 43.5490236],
          [-79.6680229, 43.5490396],
          [-79.6679751, 43.5490741],
          [-79.6679268, 43.549109],
          [-79.6679026, 43.5491265],
          [-79.6679399, 43.5491529],
          [-79.6678381, 43.5492271],
          [-79.6678512, 43.5492369],
          [-79.6676932, 43.549351]
        ]
      ],
      [
        [
          [-79.6674604, 43.5491793],
          [-79.667369, 43.5491103],
          [-79.6673509, 43.5491232],
          [-79.6673039, 43.5490882],
          [-79.6672786, 43.5491063],
          [-79.6672162, 43.5490608],
          [-79.6671609, 43.5490204],
          [-79.6672557, 43.5489502],
          [-79.6672984, 43.5489818],
          [-79.667375, 43.5490382],
          [-79.6673885, 43.5490287],
          [-79.667433, 43.5490634],
          [-79.667454, 43.549048],
          [-79.6675483, 43.5491195],
          [-79.6674604, 43.5491793]
        ]
      ],
      [
        [
          [-79.6679315, 43.5486392],
          [-79.6678752, 43.5486756],
          [-79.6678809, 43.5486802],
          [-79.6677324, 43.5487761],
          [-79.667719, 43.548764],
          [-79.6676167, 43.5488293],
          [-79.667628, 43.5488392],
          [-79.6675171, 43.5489096],
          [-79.6674396, 43.5488443],
          [-79.6674336, 43.5488392],
          [-79.6675449, 43.5487684],
          [-79.667531, 43.5487566],
          [-79.6676391, 43.5486916],
          [-79.6676487, 43.5487003],
          [-79.6676886, 43.5486733],
          [-79.6677807, 43.5486135],
          [-79.6677917, 43.5486065],
          [-79.6677836, 43.5485998],
          [-79.667839, 43.548564],
          [-79.6679315, 43.5486392]
        ]
      ]
    ]
  }
}
