{
  "type": "Feature",
  "id": "RAWC",
  "properties": {
    "buildingCode": "RAWC",
    "name": "Recreation, Athletics and Wellness Centre",
    "category": "academic",
    "source": "OpenStreetMap",
    "sourceIds": ["way/116420443"],
    "matchMethods": ["exact-label"],
    "lastVerified": "2026-08-14",
    "verificationStatus": "verified"
  },
  "geometry": {
    "type": "Polygon",
    "coordinates": [
      [
        [-79.6610605, 43.5484282],
        [-79.661119, 43.548184],
        [-79.6611356, 43.5481149],
        [-79.6612447, 43.5481287],
        [-79.6612565, 43.5480794],
        [-79.661239, 43.5480772],
        [-79.6613294, 43.5477001],
        [-79.6613111, 43.5476978],
        [-79.6612398, 43.5476888],
        [-79.6612569, 43.5476175],
        [-79.6612611, 43.5475999],
        [-79.6612678, 43.5475718],
        [-79.6609376, 43.5475302],
        [-79.6608564, 43.54752],
        [-79.6608429, 43.5475764],
        [-79.6608037, 43.5475715],
        [-79.6607874, 43.5476393],
        [-79.6608259, 43.5476441],
        [-79.6607847, 43.5478156],
        [-79.6607021, 43.5478052],
        [-79.6606714, 43.5479331],
        [-79.6606264, 43.548121],
        [-79.6606701, 43.5481265],
        [-79.6606559, 43.5481856],
        [-79.6606894, 43.5481898],
        [-79.660646, 43.5483709],
        [-79.6606448, 43.5483759],
        [-79.6606521, 43.5483768],
        [-79.6610515, 43.5484271],
        [-79.6610605, 43.5484282]
      ]
    ]
  }
}
