{
  "type": "Feature",
  "id": "WC",
  "properties": {
    "buildingCode": "WC",
    "name": "Alumni House",
    "category": "facility",
    "source": "OpenStreetMap",
    "sourceIds": ["way/76352321"],
    "matchMethods": ["override"],
    "lastVerified": "2026-08-14",
    "verificationStatus": "verified"
  },
  "geometry": {
    "type": "Polygon",
    "coordinates": [
      [
        [-79.6605426, 43.5448299],
        [-79.6604503, 43.5447896],
        [-79.6604255, 43.5448194],
        [-79.6603587, 43.5447902],
        [-79.6603366, 43.5448168],
        [-79.6602457, 43.5447771],
        [-79.6602675, 43.5447509],
        [-79.6602003, 43.5447215],
        [-79.6602252, 43.5446915],
        [-79.6601329, 43.5446511],
        [-79.6602029, 43.544567],
        [-79.6602719, 43.5445972],
        [-79.6603815, 43.544645],
        [-79.6603983, 43.5446248],
        [-79.6604463, 43.5446458],
        [-79.6604528, 43.5446486],
        [-79.6604375, 43.544667],
        [-79.6605388, 43.5447113],
        [-79.660535, 43.5447158],
        [-79.6606102, 43.5447486],
        [-79.6605426, 43.5448299]
      ]
    ]
  }
}
