{
  "type": "Feature",
  "id": "XR",
  "properties": {
    "buildingCode": "XR",
    "name": "Student Centre",
    "category": "academic",
    "source": "OpenStreetMap",
    "sourceIds": ["relation/20449622"],
    "matchMethods": ["reviewed-relation"],
    "lastVerified": "2026-08-14",
    "verificationStatus": "verified"
  },
  "geometry": {
    "type": "Polygon",
    "coordinates": [
      [
        [-79.663644, 43.5490408],
        [-79.6636555, 43.5490063],
        [-79.6636871, 43.5489109],
        [-79.6637002, 43.5489171],
        [-79.6637236, 43.5488462],
        [-79.6637555, 43.54875],
        [-79.6638027, 43.548608],
        [-79.6638413, 43.5484918],
        [-79.6638733, 43.5485019],
        [-79.6639506, 43.5485262],
        [-79.6639869, 43.5485377],
        [-79.6643082, 43.5486392],
        [-79.664414, 43.5486726],
        [-79.6641588, 43.5490972],
        [-79.6640546, 43.5490643],
        [-79.6640445, 43.5490811],
        [-79.6640009, 43.5491535],
        [-79.6636856, 43.5490539],
        [-79.663644, 43.5490408]
      ],
      [
        [-79.663833, 43.5485707],
        [-79.663833, 43.5485745],
        [-79.6638331, 43.5485805],
        [-79.6638338, 43.5485821],
        [-79.6638374, 43.5485899],
        [-79.6638456, 43.5485977],
        [-79.6638568, 43.5486033],
        [-79.6638699, 43.548606],
        [-79.6638841, 43.5486055],
        [-79.6638972, 43.5486016],
        [-79.6639078, 43.5485947],
        [-79.6639147, 43.5485857],
        [-79.6639171, 43.5485755],
        [-79.6639147, 43.5485654],
        [-79.6639078, 43.5485564],
        [-79.6639041, 43.548554],
        [-79.6638972, 43.5485495],
        [-79.6638903, 43.5485475],
        [-79.6638698, 43.5485451],
        [-79.6638568, 43.5485478],
        [-79.6638455, 43.5485534],
        [-79.6638374, 43.5485613],
        [-79.663833, 43.5485707]
      ]
    ]
  }
}
